{
"type": "FeatureCollection",
"name": "gin_admincapitals",
"crs": { "type": "name", "properties": { "name": "urn:ogc:def:crs:OGC:1.3:CRS84" } },
"features": [
{ "type": "Feature", "properties": { "adm_p_lvl": 2, "name": "Beyla", "name_1": null, "name_2": null, "name_3": null, "loc_pcode": null, "x_coord": -8.656549, "y_coord": 8.687414, "adm3_name": "Beyla Ctre", "adm3_name1": null, "adm3_name2": null, "adm3_name3": null, "adm3_pcode": "GN080101", "adm2_name": "Beyla", "adm2_name1": null, "adm2_name2": null, "adm2_name3": null, "adm2_pcode": "GN0801", "adm1_name": "Nzerekore", "adm1_name1": null, "adm1_name2": null, "adm1_name3": null, "adm1_pcode": "GN08", "adm0_name": "Guinea", "adm0_name1": null, "adm0_name2": null, "adm0_name3": null, "adm0_pcode": "GN", "valid_on": "2017-08-03", "valid_to": null, "version": "v01", "name_lng": null, "name_lng1": null, "name_lng2": null, "name_lng3": null }, "geometry": { "type": "Point", "coordinates": [ -8.656549, 8.687414 ] } },
{ "type": "Feature", "properties": { "adm_p_lvl": 2, "name": "Boffa", "name_1": null, "name_2": null, "name_3": null, "loc_pcode": null, "x_coord": -14.04258, "y_coord": 10.18519, "adm3_name": "Boffa Ctre", "adm3_name1": null, "adm3_name2": null, "adm3_name3": null, "adm3_pcode": "GN010101", "adm2_name": "Boffa", "adm2_name1": null, "adm2_name2": null, "adm2_name3": null, "adm2_pcode": "GN0101", "adm1_name": "Boke", "adm1_name1": null, "adm1_name2": null, "adm1_name3": null, "adm1_pcode": "GN01", "adm0_name": "Guinea", "adm0_name1": null, "adm0_name2": null, "adm0_name3": null, "adm0_pcode": "GN", "valid_on": "2017-08-03", "valid_to": null, "version": "v01", "name_lng": null, "name_lng1": null, "name_lng2": null, "name_lng3": null }, "geometry": { "type": "Point", "coordinates": [ -14.04258, 10.185190000000148 ] } },
{ "type": "Feature", "properties": { "adm_p_lvl": 2, "name": "Boke", "name_1": null, "name_2": null, "name_3": null, "loc_pcode": null, "x_coord": -14.29668, "y_coord": 10.93944, "adm3_name": "Boke Ctre", "adm3_name1": null, "adm3_name2": null, "adm3_name3": null, "adm3_pcode": "GN010202", "adm2_name": "Boke", "adm2_name1": null, "adm2_name2": null, "adm2_name3": null, "adm2_pcode": "GN0102", "adm1_name": "Boke", "adm1_name1": null, "adm1_name2": null, "adm1_name3": null, "adm1_pcode": "GN01", "adm0_name": "Guinea", "adm0_name1": null, "adm0_name2": null, "adm0_name3": null, "adm0_pcode": "GN", "valid_on": "2017-08-03", "valid_to": null, "version": "v01", "name_lng": null, "name_lng1": null, "name_lng2": null, "name_lng3": null }, "geometry": { "type": "Point", "coordinates": [ -14.29668, 10.939440000000104 ] } },
{ "type": "Feature", "properties": { "adm_p_lvl": 0, "name": "Conakry", "name_1": null, "name_2": null, "name_3": null, "loc_pcode": null, "x_coord": -13.702365, "y_coord": 9.517379, "adm3_name": "Dixinn", "adm3_name1": null, "adm3_name2": null, "adm3_name3": null, "adm3_pcode": "GN020101", "adm2_name": "Conakry", "adm2_name1": null, "adm2_name2": null, "adm2_name3": null, "adm2_pcode": "GN0201", "adm1_name": "Conakry", "adm1_name1": null, "adm1_name2": null, "adm1_name3": null, "adm1_pcode": "GN02", "adm0_name": "Guinea", "adm0_name1": null, "adm0_name2": null, "adm0_name3": null, "adm0_pcode": "GN", "valid_on": "2017-08-03", "valid_to": null, "version": "v01", "name_lng": null, "name_lng1": null, "name_lng2": null, "name_lng3": null }, "geometry": { "type": "Point", "coordinates": [ -13.702364999999872, 9.517379 ] } },
{ "type": "Feature", "properties": { "adm_p_lvl": 2, "name": "Coyah", "name_1": null, "name_2": null, "name_3": null, "loc_pcode": null, "x_coord": -13.38389, "y_coord": 9.70028, "adm3_name": "Coyah Ctre", "adm3_name1": null, "adm3_name2": null, "adm3_name3": null, "adm3_pcode": "GN050101", "adm2_name": "Coyah", "adm2_name1": null, "adm2_name2": null, "adm2_name3": null, "adm2_pcode": "GN0501", "adm1_name": "Kindia", "adm1_name1": null, "adm1_name2": null, "adm1_name3": null, "adm1_pcode": "GN05", "adm0_name": "Guinea", "adm0_name1": null, "adm0_name2": null, "adm0_name3": null, "adm0_pcode": "GN", "valid_on": "2017-08-03", "valid_to": null, "version": "v01", "name_lng": null, "name_lng1": null, "name_lng2": null, "name_lng3": null }, "geometry": { "type": "Point", "coordinates": [ -13.383889999999894, 9.70028 ] } },
{ "type": "Feature", "properties": { "adm_p_lvl": 2, "name": "Dabola", "name_1": null, "name_2": null, "name_3": null, "loc_pcode": null, "x_coord": -11.10879, "y_coord": 10.74817, "adm3_name": "Dabola Ctre", "adm3_name1": null, "adm3_name2": null, "adm3_name3": null, "adm3_pcode": "GN030104", "adm2_name": "Dabola", "adm2_name1": null, "adm2_name2": null, "adm2_name3": null, "adm2_pcode": "GN0301", "adm1_name": "Faranah", "adm1_name1": null, "adm1_name2": null, "adm1_name3": null, "adm1_pcode": "GN03", "adm0_name": "Guinea", "adm0_name1": null, "adm0_name2": null, "adm0_name3": null, "adm0_pcode": "GN", "valid_on": "2017-08-03", "valid_to": null, "version": "v01", "name_lng": null, "name_lng1": null, "name_lng2": null, "name_lng3": null }, "geometry": { "type": "Point", "coordinates": [ -11.10879, 10.74817 ] } },
{ "type": "Feature", "properties": { "adm_p_lvl": 2, "name": "Dalaba", "name_1": null, "name_2": null, "name_3": null, "loc_pcode": null, "x_coord": -12.27246, "y_coord": 10.6563, "adm3_name": "Dalaba Ctre", "adm3_name1": null, "adm3_name2": null, "adm3_name3": null, "adm3_pcode": "GN070102", "adm2_name": "Dalaba", "adm2_name1": null, "adm2_name2": null, "adm2_name3": null, "adm2_pcode": "GN0701", "adm1_name": "Mamou", "adm1_name1": null, "adm1_name2": null, "adm1_name3": null, "adm1_pcode": "GN07", "adm0_name": "Guinea", "adm0_name1": null, "adm0_name2": null, "adm0_name3": null, "adm0_pcode": "GN", "valid_on": "2017-08-03", "valid_to": null, "version": "v01", "name_lng": null, "name_lng1": null, "name_lng2": null, "name_lng3": null }, "geometry": { "type": "Point", "coordinates": [ -12.27246, 10.656300000000101 ] } },
{ "type": "Feature", "properties": { "adm_p_lvl": 2, "name": "Dinguiraye", "name_1": null, "name_2": null, "name_3": null, "loc_pcode": null, "x_coord": -10.72572, "y_coord": 11.29914, "adm3_name": "Dinguiraye Ctre", "adm3_name1": null, "adm3_name2": null, "adm3_name3": null, "adm3_pcode": "GN030204", "adm2_name": "Dinguiraye", "adm2_name1": null, "adm2_name2": null, "adm2_name3": null, "adm2_pcode": "GN0302", "adm1_name": "Faranah", "adm1_name1": null, "adm1_name2": null, "adm1_name3": null, "adm1_pcode": "GN03", "adm0_name": "Guinea", "adm0_name1": null, "adm0_name2": null, "adm0_name3": null, "adm0_pcode": "GN", "valid_on": "2017-08-03", "valid_to": null, "version": "v01", "name_lng": null, "name_lng1": null, "name_lng2": null, "name_lng3": null }, "geometry": { "type": "Point", "coordinates": [ -10.72572, 11.29914 ] } },
{ "type": "Feature", "properties": { "adm_p_lvl": 2, "name": "Dubreka", "name_1": null, "name_2": null, "name_3": null, "loc_pcode": null, "x_coord": -13.48532, "y_coord": 9.77487, "adm3_name": "Dubreka Ctre", "adm3_name1": null, "adm3_name2": null, "adm3_name3": null, "adm3_pcode": "GN050202", "adm2_name": "Dubreka", "adm2_name1": null, "adm2_name2": null, "adm2_name3": null, "adm2_pcode": "GN0502", "adm1_name": "Kindia", "adm1_name1": null, "adm1_name2": null, "adm1_name3": null, "adm1_pcode": "GN05", "adm0_name": "Guinea", "adm0_name1": null, "adm0_name2": null, "adm0_name3": null, "adm0_pcode": "GN", "valid_on": "2017-08-03", "valid_to": null, "version": "v01", "name_lng": null, "name_lng1": null, "name_lng2": null, "name_lng3": null }, "geometry": { "type": "Point", "coordinates": [ -13.48532, 9.77487 ] } },
{ "type": "Feature", "properties": { "adm_p_lvl": 1, "name": "Faranah", "name_1": null, "name_2": null, "name_3": null, "loc_pcode": null, "x_coord": -10.74335, "y_coord": 10.03901, "adm3_name": "Faranah Ctre", "adm3_name1": null, "adm3_name2": null, "adm3_name3": null, "adm3_pcode": "GN030303", "adm2_name": "Faranah", "adm2_name1": null, "adm2_name2": null, "adm2_name3": null, "adm2_pcode": "GN0303", "adm1_name": "Faranah", "adm1_name1": null, "adm1_name2": null, "adm1_name3": null, "adm1_pcode": "GN03", "adm0_name": "Guinea", "adm0_name1": null, "adm0_name2": null, "adm0_name3": null, "adm0_pcode": "GN", "valid_on": "2017-08-03", "valid_to": null, "version": "v01", "name_lng": null, "name_lng1": null, "name_lng2": null, "name_lng3": null }, "geometry": { "type": "Point", "coordinates": [ -10.74335, 10.039010000000189 ] } },
{ "type": "Feature", "properties": { "adm_p_lvl": 2, "name": "Forecariah", "name_1": null, "name_2": null, "name_3": null, "loc_pcode": null, "x_coord": -13.09757, "y_coord": 9.429716, "adm3_name": "Forecariah Ctre", "adm3_name1": null, "adm3_name2": null, "adm3_name3": null, "adm3_pcode": "GN050304", "adm2_name": "Forecariah", "adm2_name1": null, "adm2_name2": null, "adm2_name3": null, "adm2_pcode": "GN0503", "adm1_name": "Kindia", "adm1_name1": null, "adm1_name2": null, "adm1_name3": null, "adm1_pcode": "GN05", "adm0_name": "Guinea", "adm0_name1": null, "adm0_name2": null, "adm0_name3": null, "adm0_pcode": "GN", "valid_on": "2017-08-03", "valid_to": null, "version": "v01", "name_lng": null, "name_lng1": null, "name_lng2": null, "name_lng3": null }, "geometry": { "type": "Point", "coordinates": [ -13.09757, 9.429716000000155 ] } },
{ "type": "Feature", "properties": { "adm_p_lvl": 2, "name": "Fria", "name_1": null, "name_2": null, "name_3": null, "loc_pcode": null, "x_coord": -13.55239, "y_coord": 10.37793, "adm3_name": "Fria Ctre", "adm3_name1": null, "adm3_name2": null, "adm3_name3": null, "adm3_pcode": "GN010503", "adm2_name": "Fria", "adm2_name1": null, "adm2_name2": null, "adm2_name3": null, "adm2_pcode": "GN0105", "adm1_name": "Boke", "adm1_name1": null, "adm1_name2": null, "adm1_name3": null, "adm1_pcode": "GN01", "adm0_name": "Guinea", "adm0_name1": null, "adm0_name2": null, "adm0_name3": null, "adm0_pcode": "GN", "valid_on": "2017-08-03", "valid_to": null, "version": "v01", "name_lng": null, "name_lng1": null, "name_lng2": null, "name_lng3": null }, "geometry": { "type": "Point", "coordinates": [ -13.552389999999832, 10.377930000000106 ] } },
{ "type": "Feature", "properties": { "adm_p_lvl": 2, "name": "Gaoual", "name_1": null, "name_2": null, "name_3": null, "loc_pcode": null, "x_coord": -13.21279, "y_coord": 11.75364, "adm3_name": "Gaoual Ctre", "adm3_name1": null, "adm3_name2": null, "adm3_name3": null, "adm3_pcode": "GN010302", "adm2_name": "Gaoual", "adm2_name1": null, "adm2_name2": null, "adm2_name3": null, "adm2_pcode": "GN0103", "adm1_name": "Boke", "adm1_name1": null, "adm1_name2": null, "adm1_name3": null, "adm1_pcode": "GN01", "adm0_name": "Guinea", "adm0_name1": null, "adm0_name2": null, "adm0_name3": null, "adm0_pcode": "GN", "valid_on": "2017-08-03", "valid_to": null, "version": "v01", "name_lng": null, "name_lng1": null, "name_lng2": null, "name_lng3": null }, "geometry": { "type": "Point", "coordinates": [ -13.21278999999987, 11.75364 ] } },
{ "type": "Feature", "properties": { "adm_p_lvl": 2, "name": "Guekedou", "name_1": null, "name_2": null, "name_3": null, "loc_pcode": null, "x_coord": -10.15093, "y_coord": 8.553614, "adm3_name": "Gueckedou Ctre", "adm3_name1": null, "adm3_name2": null, "adm3_name3": null, "adm3_pcode": "GN080203", "adm2_name": "Gueckedou", "adm2_name1": null, "adm2_name2": null, "adm2_name3": null, "adm2_pcode": "GN0802", "adm1_name": "Nzerekore", "adm1_name1": null, "adm1_name2": null, "adm1_name3": null, "adm1_pcode": "GN08", "adm0_name": "Guinea", "adm0_name1": null, "adm0_name2": null, "adm0_name3": null, "adm0_pcode": "GN", "valid_on": "2017-08-03", "valid_to": null, "version": "v01", "name_lng": null, "name_lng1": null, "name_lng2": null, "name_lng3": null }, "geometry": { "type": "Point", "coordinates": [ -10.15093, 8.553614 ] } },
{ "type": "Feature", "properties": { "adm_p_lvl": 1, "name": "Kankan", "name_1": null, "name_2": null, "name_3": null, "loc_pcode": null, "x_coord": -9.305553, "y_coord": 10.38404, "adm3_name": "Kankan Ctre", "adm3_name1": null, "adm3_name2": null, "adm3_name3": null, "adm3_pcode": "GN040105", "adm2_name": "Kankan", "adm2_name1": null, "adm2_name2": null, "adm2_name3": null, "adm2_pcode": "GN0401", "adm1_name": "Kankan", "adm1_name1": null, "adm1_name2": null, "adm1_name3": null, "adm1_pcode": "GN04", "adm0_name": "Guinea", "adm0_name1": null, "adm0_name2": null, "adm0_name3": null, "adm0_pcode": "GN", "valid_on": "2017-08-03", "valid_to": null, "version": "v01", "name_lng": null, "name_lng1": null, "name_lng2": null, "name_lng3": null }, "geometry": { "type": "Point", "coordinates": [ -9.305553, 10.38404 ] } },
{ "type": "Feature", "properties": { "adm_p_lvl": 2, "name": "Kerouane", "name_1": null, "name_2": null, "name_3": null, "loc_pcode": null, "x_coord": -9.014453, "y_coord": 9.26509, "adm3_name": "Kerouane Ctre", "adm3_name1": null, "adm3_name2": null, "adm3_name3": null, "adm3_pcode": "GN040203", "adm2_name": "Kerouane", "adm2_name1": null, "adm2_name2": null, "adm2_name3": null, "adm2_pcode": "GN0402", "adm1_name": "Kankan", "adm1_name1": null, "adm1_name2": null, "adm1_name3": null, "adm1_pcode": "GN04", "adm0_name": "Guinea", "adm0_name1": null, "adm0_name2": null, "adm0_name3": null, "adm0_pcode": "GN", "valid_on": "2017-08-03", "valid_to": null, "version": "v01", "name_lng": null, "name_lng1": null, "name_lng2": null, "name_lng3": null }, "geometry": { "type": "Point", "coordinates": [ -9.014452999999889, 9.26509 ] } },
{ "type": "Feature", "properties": { "adm_p_lvl": 1, "name": "Kindia", "name_1": null, "name_2": null, "name_3": null, "loc_pcode": null, "x_coord": -12.86569, "y_coord": 10.05531, "adm3_name": "Kindia Ctre", "adm3_name1": null, "adm3_name2": null, "adm3_name3": null, "adm3_pcode": "GN050404", "adm2_name": "Kindia", "adm2_name1": null, "adm2_name2": null, "adm2_name3": null, "adm2_pcode": "GN0504", "adm1_name": "Kindia", "adm1_name1": null, "adm1_name2": null, "adm1_name3": null, "adm1_pcode": "GN05", "adm0_name": "Guinea", "adm0_name1": null, "adm0_name2": null, "adm0_name3": null, "adm0_pcode": "GN", "valid_on": "2017-08-03", "valid_to": null, "version": "v01", "name_lng": null, "name_lng1": null, "name_lng2": null, "name_lng3": null }, "geometry": { "type": "Point", "coordinates": [ -12.865689999999859, 10.05531 ] } },
{ "type": "Feature", "properties": { "adm_p_lvl": 2, "name": "Kissidougou", "name_1": null, "name_2": null, "name_3": null, "loc_pcode": null, "x_coord": -10.1126, "y_coord": 9.187395, "adm3_name": "Kissidougou Ctre", "adm3_name1": null, "adm3_name2": null, "adm3_name3": null, "adm3_pcode": "GN030408", "adm2_name": "Kissidougou", "adm2_name1": null, "adm2_name2": null, "adm2_name3": null, "adm2_pcode": "GN0304", "adm1_name": "Faranah", "adm1_name1": null, "adm1_name2": null, "adm1_name3": null, "adm1_pcode": "GN03", "adm0_name": "Guinea", "adm0_name1": null, "adm0_name2": null, "adm0_name3": null, "adm0_pcode": "GN", "valid_on": "2017-08-03", "valid_to": null, "version": "v01", "name_lng": null, "name_lng1": null, "name_lng2": null, "name_lng3": null }, "geometry": { "type": "Point", "coordinates": [ -10.1126, 9.187395 ] } },
{ "type": "Feature", "properties": { "adm_p_lvl": 2, "name": "Koubia", "name_1": null, "name_2": null, "name_3": null, "loc_pcode": null, "x_coord": -11.9, "y_coord": 11.6, "adm3_name": "Koubia Ctre", "adm3_name1": null, "adm3_name2": null, "adm3_name3": null, "adm3_pcode": "GN060103", "adm2_name": "Koubia", "adm2_name1": null, "adm2_name2": null, "adm2_name3": null, "adm2_pcode": "GN0601", "adm1_name": "Labe", "adm1_name1": null, "adm1_name2": null, "adm1_name3": null, "adm1_pcode": "GN06", "adm0_name": "Guinea", "adm0_name1": null, "adm0_name2": null, "adm0_name3": null, "adm0_pcode": "GN", "valid_on": "2017-08-03", "valid_to": null, "version": "v01", "name_lng": null, "name_lng1": null, "name_lng2": null, "name_lng3": null }, "geometry": { "type": "Point", "coordinates": [ -11.9, 11.600000000000136 ] } },
{ "type": "Feature", "properties": { "adm_p_lvl": 2, "name": "Kouroussa", "name_1": null, "name_2": null, "name_3": null, "loc_pcode": null, "x_coord": -9.892394, "y_coord": 10.6531, "adm3_name": "Kouroussa Ctre", "adm3_name1": null, "adm3_name2": null, "adm3_name3": null, "adm3_pcode": "GN040311", "adm2_name": "Kouroussa", "adm2_name1": null, "adm2_name2": null, "adm2_name3": null, "adm2_pcode": "GN0403", "adm1_name": "Kankan", "adm1_name1": null, "adm1_name2": null, "adm1_name3": null, "adm1_pcode": "GN04", "adm0_name": "Guinea", "adm0_name1": null, "adm0_name2": null, "adm0_name3": null, "adm0_pcode": "GN", "valid_on": "2017-08-03", "valid_to": null, "version": "v01", "name_lng": null, "name_lng1": null, "name_lng2": null, "name_lng3": null }, "geometry": { "type": "Point", "coordinates": [ -9.892394, 10.6531 ] } },
{ "type": "Feature", "properties": { "adm_p_lvl": 1, "name": "Labe", "name_1": null, "name_2": null, "name_3": null, "loc_pcode": null, "x_coord": -12.2993, "y_coord": 11.3234, "adm3_name": "Labe Ctre", "adm3_name1": null, "adm3_name2": null, "adm3_name3": null, "adm3_pcode": "GN060209", "adm2_name": "Labe", "adm2_name1": null, "adm2_name2": null, "adm2_name3": null, "adm2_pcode": "GN0602", "adm1_name": "Labe", "adm1_name1": null, "adm1_name2": null, "adm1_name3": null, "adm1_pcode": "GN06", "adm0_name": "Guinea", "adm0_name1": null, "adm0_name2": null, "adm0_name3": null, "adm0_pcode": "GN", "valid_on": "2017-08-03", "valid_to": null, "version": "v01", "name_lng": null, "name_lng1": null, "name_lng2": null, "name_lng3": null }, "geometry": { "type": "Point", "coordinates": [ -12.2993, 11.3234 ] } },
{ "type": "Feature", "properties": { "adm_p_lvl": 2, "name": "Lelouma", "name_1": null, "name_2": null, "name_3": null, "loc_pcode": null, "x_coord": -12.93333, "y_coord": 11.18333, "adm3_name": "Herico", "adm3_name1": null, "adm3_name2": null, "adm3_name3": null, "adm3_pcode": "GN060303", "adm2_name": "Lelouma", "adm2_name1": null, "adm2_name2": null, "adm2_name3": null, "adm2_pcode": "GN0603", "adm1_name": "Labe", "adm1_name1": null, "adm1_name2": null, "adm1_name3": null, "adm1_pcode": "GN06", "adm0_name": "Guinea", "adm0_name1": null, "adm0_name2": null, "adm0_name3": null, "adm0_pcode": "GN", "valid_on": "2017-08-03", "valid_to": null, "version": "v01", "name_lng": null, "name_lng1": null, "name_lng2": null, "name_lng3": null }, "geometry": { "type": "Point", "coordinates": [ -12.933329999999899, 11.18333 ] } },
{ "type": "Feature", "properties": { "adm_p_lvl": 2, "name": "Lola", "name_1": null, "name_2": null, "name_3": null, "loc_pcode": null, "x_coord": -8.528931, "y_coord": 7.789589, "adm3_name": "Lola Ctre", "adm3_name1": null, "adm3_name2": null, "adm3_name3": null, "adm3_pcode": "GN080307", "adm2_name": "Lola", "adm2_name1": null, "adm2_name2": null, "adm2_name3": null, "adm2_pcode": "GN0803", "adm1_name": "Nzerekore", "adm1_name1": null, "adm1_name2": null, "adm1_name3": null, "adm1_pcode": "GN08", "adm0_name": "Guinea", "adm0_name1": null, "adm0_name2": null, "adm0_name3": null, "adm0_pcode": "GN", "valid_on": "2017-08-03", "valid_to": null, "version": "v01", "name_lng": null, "name_lng1": null, "name_lng2": null, "name_lng3": null }, "geometry": { "type": "Point", "coordinates": [ -8.528931, 7.789589 ] } },
{ "type": "Feature", "properties": { "adm_p_lvl": 2, "name": "Macenta", "name_1": null, "name_2": null, "name_3": null, "loc_pcode": null, "x_coord": -9.471172, "y_coord": 8.541919, "adm3_name": "Macenta Ctre", "adm3_name1": null, "adm3_name2": null, "adm3_name3": null, "adm3_pcode": "GN080408", "adm2_name": "Macenta", "adm2_name1": null, "adm2_name2": null, "adm2_name3": null, "adm2_pcode": "GN0804", "adm1_name": "Nzerekore", "adm1_name1": null, "adm1_name2": null, "adm1_name3": null, "adm1_pcode": "GN08", "adm0_name": "Guinea", "adm0_name1": null, "adm0_name2": null, "adm0_name3": null, "adm0_pcode": "GN", "valid_on": "2017-08-03", "valid_to": null, "version": "v01", "name_lng": null, "name_lng1": null, "name_lng2": null, "name_lng3": null }, "geometry": { "type": "Point", "coordinates": [ -9.471172, 8.541919000000121 ] } },
{ "type": "Feature", "properties": { "adm_p_lvl": 2, "name": "Mali", "name_1": null, "name_2": null, "name_3": null, "loc_pcode": null, "x_coord": -12.30142, "y_coord": 12.08385, "adm3_name": "Mali Ctre", "adm3_name1": null, "adm3_name2": null, "adm3_name3": null, "adm3_pcode": "GN060409", "adm2_name": "Mali", "adm2_name1": null, "adm2_name2": null, "adm2_name3": null, "adm2_pcode": "GN0604", "adm1_name": "Labe", "adm1_name1": null, "adm1_name2": null, "adm1_name3": null, "adm1_pcode": "GN06", "adm0_name": "Guinea", "adm0_name1": null, "adm0_name2": null, "adm0_name3": null, "adm0_pcode": "GN", "valid_on": "2017-08-03", "valid_to": null, "version": "v01", "name_lng": null, "name_lng1": null, "name_lng2": null, "name_lng3": null }, "geometry": { "type": "Point", "coordinates": [ -12.30142, 12.083850000000155 ] } },
{ "type": "Feature", "properties": { "adm_p_lvl": 1, "name": "Mamou", "name_1": null, "name_2": null, "name_3": null, "loc_pcode": null, "x_coord": -12.09159, "y_coord": 10.37396, "adm3_name": "Mamou Ctre", "adm3_name1": null, "adm3_name2": null, "adm3_name3": null, "adm3_pcode": "GN070206", "adm2_name": "Mamou", "adm2_name1": null, "adm2_name2": null, "adm2_name3": null, "adm2_pcode": "GN0702", "adm1_name": "Mamou", "adm1_name1": null, "adm1_name2": null, "adm1_name3": null, "adm1_pcode": "GN07", "adm0_name": "Guinea", "adm0_name1": null, "adm0_name2": null, "adm0_name3": null, "adm0_pcode": "GN", "valid_on": "2017-08-03", "valid_to": null, "version": "v01", "name_lng": null, "name_lng1": null, "name_lng2": null, "name_lng3": null }, "geometry": { "type": "Point", "coordinates": [ -12.09159, 10.37396 ] } },
{ "type": "Feature", "properties": { "adm_p_lvl": 2, "name": "Mandiana", "name_1": null, "name_2": null, "name_3": null, "loc_pcode": null, "x_coord": -8.69768, "y_coord": 10.63286, "adm3_name": "Mandiana Ctre", "adm3_name1": null, "adm3_name2": null, "adm3_name3": null, "adm3_pcode": "GN040408", "adm2_name": "Mandiana", "adm2_name1": null, "adm2_name2": null, "adm2_name3": null, "adm2_pcode": "GN0404", "adm1_name": "Kankan", "adm1_name1": null, "adm1_name2": null, "adm1_name3": null, "adm1_pcode": "GN04", "adm0_name": "Guinea", "adm0_name1": null, "adm0_name2": null, "adm0_name3": null, "adm0_pcode": "GN", "valid_on": "2017-08-03", "valid_to": null, "version": "v01", "name_lng": null, "name_lng1": null, "name_lng2": null, "name_lng3": null }, "geometry": { "type": "Point", "coordinates": [ -8.697679999999878, 10.632860000000107 ] } },
{ "type": "Feature", "properties": { "adm_p_lvl": 1, "name": "Nzerekore", "name_1": null, "name_2": null, "name_3": null, "loc_pcode": null, "x_coord": -8.818018, "y_coord": 7.754822, "adm3_name": "Nzerekore Ctre", "adm3_name1": null, "adm3_name2": null, "adm3_name3": null, "adm3_pcode": "GN080506", "adm2_name": "Nzerekore", "adm2_name1": null, "adm2_name2": null, "adm2_name3": null, "adm2_pcode": "GN0805", "adm1_name": "Nzerekore", "adm1_name1": null, "adm1_name2": null, "adm1_name3": null, "adm1_pcode": "GN08", "adm0_name": "Guinea", "adm0_name1": null, "adm0_name2": null, "adm0_name3": null, "adm0_pcode": "GN", "valid_on": "2017-08-03", "valid_to": null, "version": "v01", "name_lng": null, "name_lng1": null, "name_lng2": null, "name_lng3": null }, "geometry": { "type": "Point", "coordinates": [ -8.818018, 7.754822 ] } },
{ "type": "Feature", "properties": { "adm_p_lvl": 2, "name": "Pita", "name_1": null, "name_2": null, "name_3": null, "loc_pcode": null, "x_coord": -12.40098, "y_coord": 11.07956, "adm3_name": "Pita Ctre", "adm3_name1": null, "adm3_name2": null, "adm3_name3": null, "adm3_pcode": "GN070308", "adm2_name": "Pita", "adm2_name1": null, "adm2_name2": null, "adm2_name3": null, "adm2_pcode": "GN0703", "adm1_name": "Mamou", "adm1_name1": null, "adm1_name2": null, "adm1_name3": null, "adm1_pcode": "GN07", "adm0_name": "Guinea", "adm0_name1": null, "adm0_name2": null, "adm0_name3": null, "adm0_pcode": "GN", "valid_on": "2017-08-03", "valid_to": null, "version": "v01", "name_lng": null, "name_lng1": null, "name_lng2": null, "name_lng3": null }, "geometry": { "type": "Point", "coordinates": [ -12.40097999999989, 11.079560000000129 ] } },
{ "type": "Feature", "properties": { "adm_p_lvl": 2, "name": "Siguiri", "name_1": null, "name_2": null, "name_3": null, "loc_pcode": null, "x_coord": -10.0439, "y_coord": 11.82655, "adm3_name": "Siguirini", "adm3_name1": null, "adm3_name2": null, "adm3_name3": null, "adm3_pcode": "GN040512", "adm2_name": "Siguiri", "adm2_name1": null, "adm2_name2": null, "adm2_name3": null, "adm2_pcode": "GN0405", "adm1_name": "Kankan", "adm1_name1": null, "adm1_name2": null, "adm1_name3": null, "adm1_pcode": "GN04", "adm0_name": "Guinea", "adm0_name1": null, "adm0_name2": null, "adm0_name3": null, "adm0_pcode": "GN", "valid_on": "2017-08-03", "valid_to": null, "version": "v01", "name_lng": null, "name_lng1": null, "name_lng2": null, "name_lng3": null }, "geometry": { "type": "Point", "coordinates": [ -10.043899999999894, 11.826550000000111 ] } },
{ "type": "Feature", "properties": { "adm_p_lvl": 2, "name": "Telimele", "name_1": null, "name_2": null, "name_3": null, "loc_pcode": null, "x_coord": -13.04255, "y_coord": 10.90452, "adm3_name": "Telemele Ctre", "adm3_name1": null, "adm3_name2": null, "adm3_name3": null, "adm3_pcode": "GN050513", "adm2_name": "Telimele", "adm2_name1": null, "adm2_name2": null, "adm2_name3": null, "adm2_pcode": "GN0505", "adm1_name": "Kindia", "adm1_name1": null, "adm1_name2": null, "adm1_name3": null, "adm1_pcode": "GN05", "adm0_name": "Guinea", "adm0_name1": null, "adm0_name2": null, "adm0_name3": null, "adm0_pcode": "GN", "valid_on": "2017-08-03", "valid_to": null, "version": "v01", "name_lng": null, "name_lng1": null, "name_lng2": null, "name_lng3": null }, "geometry": { "type": "Point", "coordinates": [ -13.04255, 10.90452 ] } },
{ "type": "Feature", "properties": { "adm_p_lvl": 2, "name": "Tougue", "name_1": null, "name_2": null, "name_3": null, "loc_pcode": null, "x_coord": -11.7992, "y_coord": 11.48785, "adm3_name": "Konah", "adm3_name1": null, "adm3_name2": null, "adm3_name3": null, "adm3_pcode": "GN060507", "adm2_name": "Tougue", "adm2_name1": null, "adm2_name2": null, "adm2_name3": null, "adm2_pcode": "GN0605", "adm1_name": "Labe", "adm1_name1": null, "adm1_name2": null, "adm1_name3": null, "adm1_pcode": "GN06", "adm0_name": "Guinea", "adm0_name1": null, "adm0_name2": null, "adm0_name3": null, "adm0_pcode": "GN", "valid_on": "2017-08-03", "valid_to": null, "version": "v01", "name_lng": null, "name_lng1": null, "name_lng2": null, "name_lng3": null }, "geometry": { "type": "Point", "coordinates": [ -11.7992, 11.487850000000151 ] } },
{ "type": "Feature", "properties": { "adm_p_lvl": 2, "name": "Yomou", "name_1": null, "name_2": null, "name_3": null, "loc_pcode": null, "x_coord": -9.259736, "y_coord": 7.562765, "adm3_name": "Yomou Ctre", "adm3_name1": null, "adm3_name2": null, "adm3_name3": null, "adm3_pcode": "GN080607", "adm2_name": "Yomou", "adm2_name1": null, "adm2_name2": null, "adm2_name3": null, "adm2_pcode": "GN0806", "adm1_name": "Nzerekore", "adm1_name1": null, "adm1_name2": null, "adm1_name3": null, "adm1_pcode": "GN08", "adm0_name": "Guinea", "adm0_name1": null, "adm0_name2": null, "adm0_name3": null, "adm0_pcode": "GN", "valid_on": "2017-08-03", "valid_to": null, "version": "v01", "name_lng": null, "name_lng1": null, "name_lng2": null, "name_lng3": null }, "geometry": { "type": "Point", "coordinates": [ -9.259736, 7.562765000000127 ] } },
{ "type": "Feature", "properties": { "adm_p_lvl": 2, "name": "Youkounkoun", "name_1": null, "name_2": null, "name_3": null, "loc_pcode": null, "x_coord": -13.12244, "y_coord": 12.53026, "adm3_name": "Youkounkoun", "adm3_name1": null, "adm3_name2": null, "adm3_name3": null, "adm3_pcode": "GN010407", "adm2_name": "Koundara", "adm2_name1": null, "adm2_name2": null, "adm2_name3": null, "adm2_pcode": "GN0104", "adm1_name": "Boke", "adm1_name1": null, "adm1_name2": null, "adm1_name3": null, "adm1_pcode": "GN01", "adm0_name": "Guinea", "adm0_name1": null, "adm0_name2": null, "adm0_name3": null, "adm0_pcode": "GN", "valid_on": "2017-08-03", "valid_to": null, "version": "v01", "name_lng": null, "name_lng1": null, "name_lng2": null, "name_lng3": null }, "geometry": { "type": "Point", "coordinates": [ -13.12244, 12.530260000000112 ] } }
]
}
